{"type": "FeatureCollection", "features": [ {"type": "Feature", "properties": {"norad_id": 43648, "name": "BEIDOU-3 M15 (C34)", "group": "gnss", "lat": 38.29383731235937, "lon": 91.88622676967277, "alt_km": 21527.09512982723, "timestamp": "2025-12-12T11:38:31.654916+00:00", "meta": {"OBJECT_NAME": "BEIDOU-3 M15 (C34)", "OBJECT_ID": "2018-078B", "EPOCH": "2025-12-09T14:32:59.144640", "MEAN_MOTION": 1.86231871, "ECCENTRICITY": 0.0003622, "INCLINATION": 54.2606, "RA_OF_ASC_NODE": 306.6314, "ARG_OF_PERICENTER": 18.0065, "MEAN_ANOMALY": 341.9965, "EPHEMERIS_TYPE": 0, "CLASSIFICATION_TYPE": "U", "NORAD_CAT_ID": 43648, "ELEMENT_SET_NO": 999, "REV_AT_EPOCH": 4864, "BSTAR": 0, "MEAN_MOTION_DOT": -7.7e-07, "MEAN_MOTION_DDOT": 0}, "tle": {"line1": "1 43648U 18078B   25343.60624010 -.00000077  00000+0  00000+0 0  9998", "line2": "2 43648  54.2606 306.6314 0003622  18.0065 341.9965  1.86231871 48642"}}, "geometry": {"type": "Point", "coordinates": [91.88622676967277, 38.29383731235937]}}, {"type": "Feature", "properties": {"norad_id": 43683, "name": "BEIDOU-3 G1 (C59)", "group": "gnss", "lat": -2.3815415884516753, "lon": 36.135014779063454, "alt_km": 35791.43897676571, "timestamp": "2025-12-12T11:38:31.654928+00:00", "meta": {"OBJECT_NAME": "BEIDOU-3 G1 (C59)", "OBJECT_ID": "2018-085A", "EPOCH": "2025-12-12T03:52:21.365760", "MEAN_MOTION": 1.00270846, "ECCENTRICITY": 0.000175, "INCLINATION": 2.6065, "RA_OF_ASC_NODE": 102.9939, "ARG_OF_PERICENTER": 63.332, "MEAN_ANOMALY": 112.9448, "EPHEMERIS_TYPE": 0, "CLASSIFICATION_TYPE": "U", "NORAD_CAT_ID": 43683, "ELEMENT_SET_NO": 999, "REV_AT_EPOCH": 2618, "BSTAR": 0, "MEAN_MOTION_DOT": -2.67e-06, "MEAN_MOTION_DDOT": 0}, "tle": {"line1": "1 43683U 18085A   25346.16135840 -.00000267  00000+0  00000+0 0  9998", "line2": "2 43683   2.6065 102.9939 0001750  63.3320 112.9448  1.00270846 26182"}}, "geometry": {"type": "Point", "coordinates": [36.135014779063454, -2.3815415884516753]}}, {"type": "Feature", "properties": {"norad_id": 43687, "name": "COSMOS 2529 (757)", "group": "gnss", "lat": 45.909172573008036, "lon": -131.28204994538916, "alt_km": 19141.89602186664, "timestamp": "2025-12-12T11:38:31.654941+00:00", "meta": {"OBJECT_NAME": "COSMOS 2529 (757)", "OBJECT_ID": "2018-086A", "EPOCH": "2025-12-11T22:43:29.447040", "MEAN_MOTION": 2.13101914, "ECCENTRICITY": 0.0007271, "INCLINATION": 64.292, "RA_OF_ASC_NODE": 198.9152, "ARG_OF_PERICENTER": 254.2986, "MEAN_ANOMALY": 105.6915, "EPHEMERIS_TYPE": 0, "CLASSIFICATION_TYPE": "U", "NORAD_CAT_ID": 43687, "ELEMENT_SET_NO": 999, "REV_AT_EPOCH": 5529, "BSTAR": 0, "MEAN_MOTION_DOT": 6.1e-07, "MEAN_MOTION_DDOT": 0}, "tle": {"line1": "1 43687U 18086A   25345.94686860  .00000061  00000+0  00000+0 0  9992", "line2": "2 43687  64.2920 198.9152 0007271 254.2986 105.6915  2.13101914 55291"}}, "geometry": {"type": "Point", "coordinates": [-131.28204994538916, 45.909172573008036]}}, {"type": "Feature", "properties": {"norad_id": 43706, "name": "BEIDOU-3 M17 (C36)", "group": "gnss", "lat": 19.141533513632474, "lon": -156.84032212013202, "alt_km": 21521.947915118726, "timestamp": "2025-12-12T11:38:31.654952+00:00", "meta": {"OBJECT_NAME": "BEIDOU-3 M17 (C36)", "OBJECT_ID": "2018-093A", "EPOCH": "2025-12-12T04:17:11.485824", "MEAN_MOTION": 1.86228421, "ECCENTRICITY": 0.0006222, "INCLINATION": 54.1726, "RA_OF_ASC_NODE": 188.6407, "ARG_OF_PERICENTER": 307.45, "MEAN_ANOMALY": 230.9206, "EPHEMERIS_TYPE": 0, "CLASSIFICATION_TYPE": "U", "NORAD_CAT_ID": 43706, "ELEMENT_SET_NO": 999, "REV_AT_EPOCH": 4805, "BSTAR": 0, "MEAN_MOTION_DOT": 7.8e-07, "MEAN_MOTION_DDOT": 0}, "tle": {"line1": "1 43706U 18093A   25346.17860516  .00000078  00000+0  00000+0 0  9998", "line2": "2 43706  54.1726 188.6407 0006222 307.4500 230.9206  1.86228421 48055"}}, "geometry": {"type": "Point", "coordinates": [-156.84032212013202, 19.141533513632474]}}, {"type": "Feature", "properties": {"norad_id": 43707, "name": "BEIDOU-3 M18 (C37)", "group": "gnss", "lat": 46.35704833863233, "lon": -40.620601118018435, "alt_km": 21532.834392883076, "timestamp": "2025-12-12T11:38:31.654965+00:00", "meta": {"OBJECT_NAME": "BEIDOU-3 M18 (C37)", "OBJECT_ID": "2018-093B", "EPOCH": "2025-12-11T18:34:39.857952", "MEAN_MOTION": 1.8622663, "ECCENTRICITY": 0.0006321, "INCLINATION": 54.1731, "RA_OF_ASC_NODE": 188.6462, "ARG_OF_PERICENTER": 352.4286, "MEAN_ANOMALY": 7.6208, "EPHEMERIS_TYPE": 0, "CLASSIFICATION_TYPE": "U", "NORAD_CAT_ID": 43707, "ELEMENT_SET_NO": 999, "REV_AT_EPOCH": 4804, "BSTAR": 0, "MEAN_MOTION_DOT": 7.2e-07, "MEAN_MOTION_DDOT": 0}, "tle": {"line1": "1 43707U 18093B   25345.77407243  .00000072  00000+0  00000+0 0  9992", "line2": "2 43707  54.1731 188.6462 0006321 352.4286   7.6208  1.86226630 48044"}}, "geometry": {"type": "Point", "coordinates": [-40.620601118018435, 46.35704833863233]}}, {"type": "Feature", "properties": {"norad_id": 43873, "name": "GPS BIII-1  (PRN 04)", "group": "gnss", "lat": -32.07742389616281, "lon": 74.11203493784807, "alt_km": 20243.872282286306, "timestamp": "2025-12-12T11:38:31.654978+00:00", "meta": {"OBJECT_NAME": "GPS BIII-1  (PRN 04)", "OBJECT_ID": "2018-109A", "EPOCH": "2025-12-11T18:46:12.593280", "MEAN_MOTION": 2.00553575, "ECCENTRICITY": 0.00372966, "INCLINATION": 55.5668, "RA_OF_ASC_NODE": 99.5845, "ARG_OF_PERICENTER": 194.9269, "MEAN_ANOMALY": 337.0503, "EPHEMERIS_TYPE": 0, "CLASSIFICATION_TYPE": "U", "NORAD_CAT_ID": 43873, "ELEMENT_SET_NO": 999, "REV_AT_EPOCH": 5131, "BSTAR": 0, "MEAN_MOTION_DOT": 2e-08, "MEAN_MOTION_DDOT": 0}, "tle": {"line1": "1 43873U 18109A   25345.78209020  .00000002  00000+0  00000+0 0  9991", "line2": "2 43873  55.5668  99.5845 0037296 194.9269 337.0503  2.00553575 51312"}}, "geometry": {"type": "Point", "coordinates": [74.11203493784807, -32.07742389616281]}}, {"type": "Feature", "properties": {"norad_id": 44204, "name": "BEIDOU-3 IGSO-1 (C38)", "group": "gnss", "lat": -25.35236907670869, "lon": 22.695330016624254, "alt_km": 35832.88074539649, "timestamp": "2025-12-12T11:38:31.654989+00:00", "meta": {"OBJECT_NAME": "BEIDOU-3 IGSO-1 (C38)", "OBJECT_ID": "2019-023A", "EPOCH": "2025-11-19T14:15:02.708640", "MEAN_MOTION": 1.00252177, "ECCENTRICITY": 0.0026966, "INCLINATION": 58.4003, "RA_OF_ASC_NODE": 39.8168, "ARG_OF_PERICENTER": 221.2202, "MEAN_ANOMALY": 126.9723, "EPHEMERIS_TYPE": 0, "CLASSIFICATION_TYPE": "U", "NORAD_CAT_ID": 44204, "ELEMENT_SET_NO": 999, "REV_AT_EPOCH": 510, "BSTAR": 0, "MEAN_MOTION_DOT": -2.26e-06, "MEAN_MOTION_DDOT": 0}, "tle": {"line1": "1 44204U 19023A   25323.59378135 -.00000226  00000+0  00000+0 0  9994", "line2": "2 44204  58.4003  39.8168 0026966 221.2202 126.9723  1.00252177  5102"}}, "geometry": {"type": "Point", "coordinates": [22.695330016624254, -25.35236907670869]}}, {"type": "Feature", "properties": {"norad_id": 44231, "name": "BEIDOU-2 G8 (C01)", "group": "gnss", "lat": -0.9137514651346524, "lon": 40.66033494499306, "alt_km": 35775.07606408357, "timestamp": "2025-12-12T11:38:31.655004+00:00", "meta": {"OBJECT_NAME": "BEIDOU-2 G8 (C01)", "OBJECT_ID": "2019-027A", "EPOCH": "2025-12-12T04:09:51.827328", "MEAN_MOTION": 1.00267941, "ECCENTRICITY": 0.0008664, "INCLINATION": 1.6609, "RA_OF_ASC_NODE": 74.7023, "ARG_OF_PERICENTER": 255.6557, "MEAN_ANOMALY": 317.7337, "EPHEMERIS_TYPE": 0, "CLASSIFICATION_TYPE": "U", "NORAD_CAT_ID": 44231, "ELEMENT_SET_NO": 999, "REV_AT_EPOCH": 2420, "BSTAR": 0, "MEAN_MOTION_DOT": -2.39e-06, "MEAN_MOTION_DDOT": 0}, "tle": {"line1": "1 44231U 19027A   25346.17351652 -.00000239  00000+0  00000+0 0  9996", "line2": "2 44231   1.6609  74.7023 0008664 255.6557 317.7337  1.00267941 24209"}}, "geometry": {"type": "Point", "coordinates": [40.66033494499306, -0.9137514651346524]}}, {"type": "Feature", "properties": {"norad_id": 44299, "name": "COSMOS 2534 (758)", "group": "gnss", "lat": -6.489448197756921, "lon": 22.035349842887292, "alt_km": 19133.72725966528, "timestamp": "2025-12-12T11:38:31.655015+00:00", "meta": {"OBJECT_NAME": "COSMOS 2534 (758)", "OBJECT_ID": "2019-030A", "EPOCH": "2025-12-10T14:34:24.563136", "MEAN_MOTION": 2.13102261, "ECCENTRICITY": 0.0008999, "INCLINATION": 64.3653, "RA_OF_ASC_NODE": 198.9649, "ARG_OF_PERICENTER": 283.4628, "MEAN_ANOMALY": 263.2195, "EPHEMERIS_TYPE": 0, "CLASSIFICATION_TYPE": "U", "NORAD_CAT_ID": 44299, "ELEMENT_SET_NO": 999, "REV_AT_EPOCH": 5090, "BSTAR": 0, "MEAN_MOTION_DOT": 4.7e-07, "MEAN_MOTION_DDOT": 0}, "tle": {"line1": "1 44299U 19030A   25344.60722874  .00000047  00000+0  00000+0 0  9994", "line2": "2 44299  64.3653 198.9649 0008999 283.4628 263.2195  2.13102261 50901"}}, "geometry": {"type": "Point", "coordinates": [22.035349842887292, -6.489448197756921]}}, {"type": "Feature", "properties": {"norad_id": 44337, "name": "BEIDOU-3 IGSO-2 (C39)", "group": "gnss", "lat": -28.23821733705697, "lon": 2.4296765841185795, "alt_km": 35636.990149087054, "timestamp": "2025-12-12T11:38:31.655027+00:00", "meta": {"OBJECT_NAME": "BEIDOU-3 IGSO-2 (C39)", "OBJECT_ID": "2019-035A", "EPOCH": "2025-12-10T21:20:38.716800", "MEAN_MOTION": 1.00271557, "ECCENTRICITY": 0.00373373, "INCLINATION": 55.2247, "RA_OF_ASC_NODE": 160.5169, "ARG_OF_PERICENTER": 202.3364, "MEAN_ANOMALY": 156.6887, "EPHEMERIS_TYPE": 0, "CLASSIFICATION_TYPE": "U", "NORAD_CAT_ID": 44337, "ELEMENT_SET_NO": 999, "REV_AT_EPOCH": 2377, "BSTAR": 0, "MEAN_MOTION_DOT": -6.6e-07, "MEAN_MOTION_DDOT": 0}, "tle": {"line1": "1 44337U 19035A   25344.88933700 -.00000066  00000+0  00000+0 0  9996", "line2": "2 44337  55.2247 160.5169 0037337 202.3364 156.6887  1.00271557 23777"}}, "geometry": {"type": "Point", "coordinates": [2.4296765841185795, -28.23821733705697]}}]}